ORBCOMM FM01            
1 23545U 95017A   25111.73174201  .00011273  00000+0  11932-2 0  9997
2 23545  69.9637 214.8379 0002271 340.3493  19.7573 14.89343672604103
ORBCOMM FM02            
1 23546U 95017B   25111.70427446  .00017374  00000+0  18022-2 0  9992
2 23546  69.9647 234.4599 0002879   4.3277 355.7902 14.90015304603746
ORBCOMM FM08            
1 25112U 97084A   25111.86246125  .00002984  00000+0  87656-3 0  9990
2 25112  45.0135 278.2104 0005488 315.6930  44.3481 14.45601772433222
ORBCOMM FM10            
1 25113U 97084B   25111.83534946  .00003472  00000+0  10178-2 0  9996
2 25113  45.0148 280.6233 0004446 275.2795  84.7549 14.45392324608362
ORBCOMM FM11            
1 25114U 97084C   25111.83021098  .00003350  00000+0  98856-3 0  9991
2 25114  45.0132 281.1792 0005209 278.5863  81.4398 14.45144629433356
ORBCOMM FM12            
1 25115U 97084D   25111.79352175  .00003097  00000+0  91667-3 0  9991
2 25115  45.0139 281.1111 0004257 273.4016  86.6349 14.45165154433118
ORBCOMM FM09            
1 25116U 97084E   25111.82105762  .00003157  00000+0  93562-3 0  9997
2 25116  45.0145 281.8572 0005777 265.5800  94.4392 14.45048346433326
