<?xml version="1.0" encoding="UTF-8"?>
<ndm xmlns:xsi="http://www.w3.org/2001/XMLSchema-instance" xsi:noNamespaceSchemaLocation="https://sanaregistry.org/r/ndmxml_unqualified/ndmxml-2.0.0-master-2.0.xsd">
<omm id="CCSDS_OMM_VERS" version="2.0">
<header><CREATION_DATE/><ORIGINATOR/></header><body><segment><metadata><OBJECT_NAME>ORBCOMM FM01</OBJECT_NAME><OBJECT_ID>1995-017A</OBJECT_ID><CENTER_NAME>EARTH</CENTER_NAME><REF_FRAME>TEME</REF_FRAME><TIME_SYSTEM>UTC</TIME_SYSTEM><MEAN_ELEMENT_THEORY>SGP4</MEAN_ELEMENT_THEORY></metadata><data><meanElements><EPOCH>2025-04-21T17:33:42.509664</EPOCH><MEAN_MOTION>14.89343672</MEAN_MOTION><ECCENTRICITY>.0002271</ECCENTRICITY><INCLINATION>69.9637</INCLINATION><RA_OF_ASC_NODE>214.8379</RA_OF_ASC_NODE><ARG_OF_PERICENTER>340.3493</ARG_OF_PERICENTER><MEAN_ANOMALY>19.7573</MEAN_ANOMALY></meanElements><tleParameters><EPHEMERIS_TYPE>0</EPHEMERIS_TYPE><CLASSIFICATION_TYPE>U</CLASSIFICATION_TYPE><NORAD_CAT_ID>23545</NORAD_CAT_ID><ELEMENT_SET_NO>999</ELEMENT_SET_NO><REV_AT_EPOCH>60410</REV_AT_EPOCH><BSTAR>.11932E-2</BSTAR><MEAN_MOTION_DOT>.11273E-3</MEAN_MOTION_DOT><MEAN_MOTION_DDOT>0</MEAN_MOTION_DDOT></tleParameters></data></segment></body></omm>
<omm id="CCSDS_OMM_VERS" version="2.0">
<header><CREATION_DATE/><ORIGINATOR/></header><body><segment><metadata><OBJECT_NAME>ORBCOMM FM02</OBJECT_NAME><OBJECT_ID>1995-017B</OBJECT_ID><CENTER_NAME>EARTH</CENTER_NAME><REF_FRAME>TEME</REF_FRAME><TIME_SYSTEM>UTC</TIME_SYSTEM><MEAN_ELEMENT_THEORY>SGP4</MEAN_ELEMENT_THEORY></metadata><data><meanElements><EPOCH>2025-04-21T16:54:09.313344</EPOCH><MEAN_MOTION>14.90015304</MEAN_MOTION><ECCENTRICITY>.0002879</ECCENTRICITY><INCLINATION>69.9647</INCLINATION><RA_OF_ASC_NODE>234.4599</RA_OF_ASC_NODE><ARG_OF_PERICENTER>4.3277</ARG_OF_PERICENTER><MEAN_ANOMALY>355.7902</MEAN_ANOMALY></meanElements><tleParameters><EPHEMERIS_TYPE>0</EPHEMERIS_TYPE><CLASSIFICATION_TYPE>U</CLASSIFICATION_TYPE><NORAD_CAT_ID>23546</NORAD_CAT_ID><ELEMENT_SET_NO>999</ELEMENT_SET_NO><REV_AT_EPOCH>60374</REV_AT_EPOCH><BSTAR>.18022E-2</BSTAR><MEAN_MOTION_DOT>.17374E-3</MEAN_MOTION_DOT><MEAN_MOTION_DDOT>0</MEAN_MOTION_DDOT></tleParameters></data></segment></body></omm>
<omm id="CCSDS_OMM_VERS" version="2.0">
<header><CREATION_DATE/><ORIGINATOR/></header><body><segment><metadata><OBJECT_NAME>ORBCOMM FM08</OBJECT_NAME><OBJECT_ID>1997-084A</OBJECT_ID><CENTER_NAME>EARTH</CENTER_NAME><REF_FRAME>TEME</REF_FRAME><TIME_SYSTEM>UTC</TIME_SYSTEM><MEAN_ELEMENT_THEORY>SGP4</MEAN_ELEMENT_THEORY></metadata><data><meanElements><EPOCH>2025-04-21T20:41:56.652000</EPOCH><MEAN_MOTION>14.45601772</MEAN_MOTION><ECCENTRICITY>.0005488</ECCENTRICITY><INCLINATION>45.0135</INCLINATION><RA_OF_ASC_NODE>278.2104</RA_OF_ASC_NODE><ARG_OF_PERICENTER>315.6930</ARG_OF_PERICENTER><MEAN_ANOMALY>44.3481</MEAN_ANOMALY></meanElements><tleParameters><EPHEMERIS_TYPE>0</EPHEMERIS_TYPE><CLASSIFICATION_TYPE>U</CLASSIFICATION_TYPE><NORAD_CAT_ID>25112</NORAD_CAT_ID><ELEMENT_SET_NO>999</ELEMENT_SET_NO><REV_AT_EPOCH>43322</REV_AT_EPOCH><BSTAR>.87656E-3</BSTAR><MEAN_MOTION_DOT>.2984E-4</MEAN_MOTION_DOT><MEAN_MOTION_DDOT>0</MEAN_MOTION_DDOT></tleParameters></data></segment></body></omm>
<omm id="CCSDS_OMM_VERS" version="2.0">
<header><CREATION_DATE/><ORIGINATOR/></header><body><segment><metadata><OBJECT_NAME>ORBCOMM FM10</OBJECT_NAME><OBJECT_ID>1997-084B</OBJECT_ID><CENTER_NAME>EARTH</CENTER_NAME><REF_FRAME>TEME</REF_FRAME><TIME_SYSTEM>UTC</TIME_SYSTEM><MEAN_ELEMENT_THEORY>SGP4</MEAN_ELEMENT_THEORY></metadata><data><meanElements><EPOCH>2025-04-21T20:02:54.193344</EPOCH><MEAN_MOTION>14.45392324</MEAN_MOTION><ECCENTRICITY>.0004446</ECCENTRICITY><INCLINATION>45.0148</INCLINATION><RA_OF_ASC_NODE>280.6233</RA_OF_ASC_NODE><ARG_OF_PERICENTER>275.2795</ARG_OF_PERICENTER><MEAN_ANOMALY>84.7549</MEAN_ANOMALY></meanElements><tleParameters><EPHEMERIS_TYPE>0</EPHEMERIS_TYPE><CLASSIFICATION_TYPE>U</CLASSIFICATION_TYPE><NORAD_CAT_ID>25113</NORAD_CAT_ID><ELEMENT_SET_NO>999</ELEMENT_SET_NO><REV_AT_EPOCH>60836</REV_AT_EPOCH><BSTAR>.10178E-2</BSTAR><MEAN_MOTION_DOT>.3472E-4</MEAN_MOTION_DOT><MEAN_MOTION_DDOT>0</MEAN_MOTION_DDOT></tleParameters></data></segment></body></omm>
<omm id="CCSDS_OMM_VERS" version="2.0">
<header><CREATION_DATE/><ORIGINATOR/></header><body><segment><metadata><OBJECT_NAME>ORBCOMM FM11</OBJECT_NAME><OBJECT_ID>1997-084C</OBJECT_ID><CENTER_NAME>EARTH</CENTER_NAME><REF_FRAME>TEME</REF_FRAME><TIME_SYSTEM>UTC</TIME_SYSTEM><MEAN_ELEMENT_THEORY>SGP4</MEAN_ELEMENT_THEORY></metadata><data><meanElements><EPOCH>2025-04-21T19:55:30.228672</EPOCH><MEAN_MOTION>14.45144629</MEAN_MOTION><ECCENTRICITY>.0005209</ECCENTRICITY><INCLINATION>45.0132</INCLINATION><RA_OF_ASC_NODE>281.1792</RA_OF_ASC_NODE><ARG_OF_PERICENTER>278.5863</ARG_OF_PERICENTER><MEAN_ANOMALY>81.4398</MEAN_ANOMALY></meanElements><tleParameters><EPHEMERIS_TYPE>0</EPHEMERIS_TYPE><CLASSIFICATION_TYPE>U</CLASSIFICATION_TYPE><NORAD_CAT_ID>25114</NORAD_CAT_ID><ELEMENT_SET_NO>999</ELEMENT_SET_NO><REV_AT_EPOCH>43332</REV_AT_EPOCH><BSTAR>.98856E-3</BSTAR><MEAN_MOTION_DOT>.335E-4</MEAN_MOTION_DOT><MEAN_MOTION_DDOT>0</MEAN_MOTION_DDOT></tleParameters></data></segment></body></omm>
<omm id="CCSDS_OMM_VERS" version="2.0">
<header><CREATION_DATE/><ORIGINATOR/></header><body><segment><metadata><OBJECT_NAME>ORBCOMM FM12</OBJECT_NAME><OBJECT_ID>1997-084D</OBJECT_ID><CENTER_NAME>EARTH</CENTER_NAME><REF_FRAME>TEME</REF_FRAME><TIME_SYSTEM>UTC</TIME_SYSTEM><MEAN_ELEMENT_THEORY>SGP4</MEAN_ELEMENT_THEORY></metadata><data><meanElements><EPOCH>2025-04-21T19:02:40.279200</EPOCH><MEAN_MOTION>14.45165154</MEAN_MOTION><ECCENTRICITY>.0004257</ECCENTRICITY><INCLINATION>45.0139</INCLINATION><RA_OF_ASC_NODE>281.1111</RA_OF_ASC_NODE><ARG_OF_PERICENTER>273.4016</ARG_OF_PERICENTER><MEAN_ANOMALY>86.6349</MEAN_ANOMALY></meanElements><tleParameters><EPHEMERIS_TYPE>0</EPHEMERIS_TYPE><CLASSIFICATION_TYPE>U</CLASSIFICATION_TYPE><NORAD_CAT_ID>25115</NORAD_CAT_ID><ELEMENT_SET_NO>999</ELEMENT_SET_NO><REV_AT_EPOCH>43311</REV_AT_EPOCH><BSTAR>.91667E-3</BSTAR><MEAN_MOTION_DOT>.3097E-4</MEAN_MOTION_DOT><MEAN_MOTION_DDOT>0</MEAN_MOTION_DDOT></tleParameters></data></segment></body></omm>
<omm id="CCSDS_OMM_VERS" version="2.0">
<header><CREATION_DATE/><ORIGINATOR/></header><body><segment><metadata><OBJECT_NAME>ORBCOMM FM09</OBJECT_NAME><OBJECT_ID>1997-084E</OBJECT_ID><CENTER_NAME>EARTH</CENTER_NAME><REF_FRAME>TEME</REF_FRAME><TIME_SYSTEM>UTC</TIME_SYSTEM><MEAN_ELEMENT_THEORY>SGP4</MEAN_ELEMENT_THEORY></metadata><data><meanElements><EPOCH>2025-04-21T19:42:19.378368</EPOCH><MEAN_MOTION>14.45048346</MEAN_MOTION><ECCENTRICITY>.0005777</ECCENTRICITY><INCLINATION>45.0145</INCLINATION><RA_OF_ASC_NODE>281.8572</RA_OF_ASC_NODE><ARG_OF_PERICENTER>265.5800</ARG_OF_PERICENTER><MEAN_ANOMALY>94.4392</MEAN_ANOMALY></meanElements><tleParameters><EPHEMERIS_TYPE>0</EPHEMERIS_TYPE><CLASSIFICATION_TYPE>U</CLASSIFICATION_TYPE><NORAD_CAT_ID>25116</NORAD_CAT_ID><ELEMENT_SET_NO>999</ELEMENT_SET_NO><REV_AT_EPOCH>43332</REV_AT_EPOCH><BSTAR>.93562E-3</BSTAR><MEAN_MOTION_DOT>.3157E-4</MEAN_MOTION_DOT><MEAN_MOTION_DDOT>0</MEAN_MOTION_DDOT></tleParameters></data></segment></body></omm>

</ndm>
